{
  "type": "FeatureCollection",
  "features": [
    { "type": "Feature", "properties": { "name": "México", "iso_a2": "MX", "center": [-102, 23] }, "geometry": { "type": "Polygon", "coordinates": [[[-117, 32], [-86, 31], [-89, 18], [-105, 14], [-117, 32]]] } },
    { "type": "Feature", "properties": { "name": "Francia", "iso_a2": "FR", "center": [2, 46] }, "geometry": { "type": "Polygon", "coordinates": [[[ -5, 51], [8, 51], [9, 42], [-1, 42], [-5, 51]]] } },
    { "type": "Feature", "properties": { "name": "Egipto", "iso_a2": "EG", "center": [30, 27] }, "geometry": { "type": "Polygon", "coordinates": [[[25, 32], [36, 32], [35, 22], [25, 22], [25, 32]]] } },
    { "type": "Feature", "properties": { "name": "Japón", "iso_a2": "JP", "center": [138, 36] }, "geometry": { "type": "Polygon", "coordinates": [[[130, 45], [146, 45], [145, 31], [130, 31], [130, 45]]] } },
    { "type": "Feature", "properties": { "name": "Indonesia", "iso_a2": "ID", "center": [118, -2] }, "geometry": { "type": "Polygon", "coordinates": [[[95, 6], [141, 6], [141, -11], [95, -11], [95, 6]]] } }
  ]
}